TIANMU-1 13             
1 58647U 23205C   24327.59016744  .00009445  00000+0  46253-3 0  9990
2 58647  97.3934 348.7757 0009104 175.0436 185.0890 15.18344033 50501
TIANMU-1 14             
1 58648U 23205D   24327.57406337  .00009182  00000+0  44974-3 0  9996
2 58648  97.3859 348.4704 0009558 179.7946 180.3294 15.18338662 50504
TIANMU-1 19             
1 58660U 23208A   24327.56342242  .00012783  00000+0  61367-3 0  9992
2 58660  97.4198  76.4579 0006761 164.2928 195.8518 15.18973167 50173
TIANMU-1 20             
1 58661U 23208B   24327.59217910  .00013706  00000+0  63441-3 0  9990
2 58661  97.4130  76.5594 0009280 177.8083 182.3194 15.20202297 50206
TIANMU-1 21             
1 58662U 23208C   24327.60657363  .00014597  00000+0  65040-3 0  9999
2 58662  97.4168  77.1647 0008911 177.2760 182.8526 15.21501252 50231
TIANMU-1 22             
1 58663U 23208D   24327.56500236  .00012186  00000+0  58110-3 0  9993
2 58663  97.4190  76.5458 0004758 184.2738 175.8457 15.19226599 50182
TIANMU-1 15             
1 58700U 24004A   24327.56987834  .00010710  00000+0  52418-3 0  9999
2 58700  97.4611 146.1359 0008263 207.6164 152.4632 15.18338238 48775
TIANMU-1 16             
1 58701U 24004B   24327.61678593  .00010235  00000+0  50214-3 0  9999
2 58701  97.4538 145.9166 0008370 210.0539 150.0215 15.18262973 48784
TIANMU-1 17             
1 58702U 24004C   24327.60287318  .00010421  00000+0  51029-3 0  9992
2 58702  97.4578 146.1175 0006827 204.7368 155.3539 15.18336280 48776
TIANMU-1 18             
1 58703U 24004D   24327.58560931  .00011033  00000+0  53996-3 0  9990
2 58703  97.4597 146.2071 0006591 196.2473 163.8551 15.18340988 48772
INSAT-3DS               
1 58990U 24033A   24327.57271750 -.00000152  00000+0  00000+0 0  9992
2 58990   0.0567 268.3613 0001685 342.4762  99.5028  1.00272289 41333
METEOR-M2 4             
1 59051U 24039A   24327.56368664  .00000140  00000+0  82604-4 0  9998
2 59051  98.6215 285.7288 0007715  32.9383 327.2274 14.22304052 38002
